79P/duToit-Hartley,e,3.1488,280.5077,281.7545,2.942602,0.1952571,0.61931845,118.6523,05/30.0/2025,2000,g 16.0,4.0
# From MPEC 2024-Q20
80P/Peters-Hartley,e,29.9270,259.7723,339.2753,4.021717,0.1222044,0.59772710,110.4447,05/30.0/2025,2000,g  9.0,8.0
# From MPEC 2024-RQ6
81P/Wild,e,3.2381,136.0986,41.5511,3.451582,0.1537010,0.53762298,137.7494,05/30.0/2025,2000,g  7.0,6.0
# From MPC133426
82P/Gehrels,e,1.1294,239.2149,226.4757,4.131967,0.1173461,0.12284107,297.2267,05/30.0/2025,2000,g 15.0,4.0
# From NK 932
83D/Russell,e,17.8308,226.2965,334.3797,3.843292,0.1308124,0.44143470,192.2045,05/30.0/2025,2000,g  9.0,4.0
# From MPEC 2020-FB5
84P/Giclas,e,7.5527,108.1422,281.6820,3.550159,0.1473440,0.51573247,268.1179,05/30.0/2025,2000,g  9.5,8.0
# From unp
85D/Boethin,e,4.1729,65.2960,333.0902,5.046289,0.0869453,0.77589893,153.4272,05/30.0/2025,2000,g  6.5,8.0
# From MPEC 2022-YB4
86P/Wild,e,15.5080,72.0958,181.0645,3.646261,0.1415573,0.36292523,171.6749,05/30.0/2025,2000,g 11.0,6.0
# From MPEC 2020-SI8
87P/Bus,e,2.6690,184.9885,51.8930,4.358461,0.1083189,0.21715250,208.0930,05/30.0/2025,2000,g  7.2,10.0
# From MPEC 2025-J92
88P/Howell,e,4.3820,56.6687,235.8820,3.108411,0.1798442,0.56322719,307.3431,05/30.0/2025,2000,g 11.0,6.0
# From MPC182887
89P/Russell,e,12.0715,41.3448,250.4227,3.750847,0.1356782,0.40749047,58.2593,05/30.0/2025,2000,g 11.5,6.0
# From MPEC 2022-K19
90P/Gehrels,e,9.6396,13.1874,29.1858,6.054117,0.0661649,0.51064265,191.6817,05/30.0/2025,2000,g  8.5,6.0
# From MPEC 2023-VM5
91P/Russell,e,16.2095,242.4476,357.3778,4.135797,0.1171832,0.25770797,214.4466,05/30.0/2025,2000,g  7.5,6.0
# From MPEC 2014-J58
92P/Sanguin,e,19.4796,181.3635,163.7811,5.344300,0.0797752,0.66005815,298.0633,05/30.0/2025,2000,g 12.0,6.0
# From MPEC 2024-R10
93P/Lovas,e,12.2092,339.5515,75.0215,4.374258,0.1077327,0.61396383,323.5961,05/30.0/2025,2000,g  9.5,6.0
# From MPEC 2024-R10
94P/Russell,e,6.1876,70.8481,92.3752,3.510056,0.1498763,0.36598146,110.8829,05/30.0/2025,2000,g  9.0,6.0
# From MPC 75717
95P/Chiron,e,6.9281,209.1929,339.3548,13.69835,0.0194402,0.37829274,209.4066,05/30.0/2025,2000,g  6.5,2.0
# From MPC182887
96P/Machholz,e,57.5859,93.9626,14.7370,3.031057,0.1867725,0.96170219,158.6976,05/30.0/2025,2000,g 13.0,4.8
# From MPC106348
96P-B/Machholz,e,57.5035,14.5939,94.0134,3.030010,0.1868693,0.96173241,158.8043,05/30.0/2025,2000,g 13.0,4.8
# From MPC103849
96P-C/Machholz,e,58.5311,94.3495,15.5380,3.011920,0.1885553,0.95889850,359.8715,07/14.0/2012,2000,g  9.0,4.0
# From MPEC 2024-GJ3
97P/Metcalf-Brewington,e,17.9386,184.0746,230.1942,4.769800,0.0946136,0.45996591,113.4435,05/30.0/2025,2000,g  5.5,6.0
# From MPEC 2021-W31
98P/Takamizawa,e,10.6420,114.5145,157.7229,3.781670,0.1340228,0.56641138,215.2231,05/30.0/2025,2000,g  9.0,8.0
# From MPEC 2024-R10
99P/Kowal,e,4.3391,28.0665,174.5405,6.093978,0.0655168,0.22873972,75.1437,05/30.0/2025,2000,g  4.5,6.0
# From MPEC 2023-OA6
100P/Hartley,e,25.5675,37.6857,181.9276,3.430344,0.1551306,0.41136222,158.8236,05/30.0/2025,2000,g  9.0,8.0
# From MPEC 2024-R10
101P/Chernykh,e,5.0485,116.1247,277.9801,5.817324,0.0702456,0.59563152,137.9591,05/30.0/2025,2000,g 10.0,4.8
# From MPC105241
101P-B/Chernykh,e,5.0502,278.5082,115.6000,5.832868,0.0699650,0.59584270,136.1647,05/30.0/2025,2000,g  9.0,4.0
# From MPEC 2022-C56
102P/Shoemaker,e,25.8547,339.3966,20.6757,3.820125,0.1320042,0.45601446,209.8147,05/30.0/2025,2000,g  6.5,8.0
# From MPEC 2025-J08
103P/Hartley,e,13.6081,219.7563,181.3267,3.475603,0.1521103,0.69351844,90.5923,05/30.0/2025,2000,g  8.5,8.0
# From MPEC 2023-G31
104P/Kowal,e,5.7011,207.1849,227.3013,3.208679,0.1714804,0.66590310,211.5360,05/30.0/2025,2000,g 16.0,4.0
# From MPEC 2025-GB9
105P/SingerBrewster,e,9.1673,192.3941,46.3322,3.473072,0.1522767,0.40914481,19.3765,05/30.0/2025,2000,g 11.5,6.0
# From MPEC 2024-R10
106P/Schuster,e,19.5340,48.8658,353.7967,3.768271,0.1347383,0.59354851,185.9253,05/30.0/2025,2000,g 14.0,4.8
# From MPEC 2015-M77
107P/Wilson-Harrington,e,2.7986,266.7279,95.5176,2.626012,0.2316109,0.63097430,233.8686,05/30.0/2025,2000,g  9.0,4.0
# From MPEC 2022-P82
108P/Ciffreo,e,11.4326,50.3013,354.5316,3.743789,0.1360621,0.55570461,184.7137,05/30.0/2025,2000,g  8.0,12.0
# From  105, 420
109P/Swift-Tuttle,e,113.1195,139.7005,153.2771,26.20393,0.0073478,0.96287018,87.0587,05/30.0/2025,2000,g  4.0,6.0
# From MPEC 2023-KD6
110P/Hartley,e,11.7113,287.4820,167.5581,3.603649,0.1440756,0.31921322,189.9596,05/30.0/2025,2000,g  1.0,12.0
# From MPC 75718
111P/Helin-Roman-Crockett,e,4.2262,89.8101,1.4260,4.152978,0.1164567,0.10716921,167.7261,05/30.0/2025,2000,g  5.0,8.0
# From MPEC 2021-S45
112P/Urata-Niijima,e,24.2026,31.8134,21.5494,3.522491,0.1490834,0.59084052,288.4702,05/30.0/2025,2000,g 14.0,6.0
# From MPEC 2024-JU4
113P/Spitaler,e,5.2876,306.6223,115.7339,3.696032,0.1387077,0.41968415,151.6344,05/30.0/2025,2000,g 13.5,4.0
# From MPEC 2023-A50
114P/Wiseman-Skiff,e,18.3040,271.0265,172.8090,3.540003,0.1479785,0.55613821,290.0135,05/30.0/2025,2000,g 11.5,6.0
# From MPEC 2023-J29
115P/Maury,e,11.6806,175.9866,120.9149,4.271170,0.1116564,0.51782722,197.4381,05/30.0/2025,2000,g 10.5,6.0
# From MPEC 2024-RQ6
116P/Wild,e,3.6045,20.9599,173.1595,3.486075,0.1514255,0.37066887,158.7343,05/30.0/2025,2000,g  2.5,10.0
# From MPC182887
117P/Helin-Roman-Alu,e,8.6818,58.8231,224.6604,4.116260,0.1180185,0.25294012,124.2245,05/30.0/2025,2000,g  2.5,8.0
# From MPEC 2024-MB8
118P/Shoemaker-Levy,e,10.0915,142.0556,314.9485,3.348960,0.1608197,0.45380534,147.5145,05/30.0/2025,2000,g 12.0,4.0
# From MPEC 2024-R10
119P/Parker-Hartley,e,7.3928,104.5430,322.2674,3.809243,0.1325703,0.38812309,135.4308,05/30.0/2025,2000,g  3.5,8.0
# From MPEC 2022-CN4
120P/Mueller,e,8.4816,358.7061,36.7824,3.969858,0.1246068,0.37417835,184.8454,05/30.0/2025,2000,g 12.0,4.0
# From MPEC 2025-J72
121P/Shoemaker-Holt,e,20.1621,94.1052,11.9573,4.589180,0.1002539,0.18670994,70.1120,05/30.0/2025,2000,g  6.5,8.0
# From MPC 75718
122P/de Vico,e,86.0281,79.7418,13.0035,17.63330,0.0133108,0.96259574,144.2035,05/30.0/2025,2000,g  7.5,5.2
# From MPEC 2021-F20
123P/West-Hartley,e,15.2800,45.9010,103.9576,3.883581,0.1287821,0.44452436,298.1574,05/30.0/2025,2000,g 12.2,4.0
# From MPEC 2024-UQ8
124P/Mrkos,e,31.4048,359.9905,185.1183,3.376871,0.1588299,0.48642390,298.1154,05/30.0/2025,2000,g 13.5,2.8
# From MPEC 2024-UA9
125P/Spacewatch,e,9.9858,153.1496,87.1100,3.127845,0.1781707,0.51199077,79.9569,05/30.0/2025,2000,g 13.0,6.0
# From MPEC 2024-JU4
126P/IRAS,e,45.8713,357.8576,356.5611,5.627843,0.0738229,0.69604247,51.3026,05/30.0/2025,2000,g  6.0,8.0
# From MPEC 2024-R10
127P/Holt-Olmstead,e,14.2956,13.6163,6.3395,3.454326,0.1535179,0.35877252,157.1964,05/30.0/2025,2000,g 11.0,6.0
# From MPC 89014
128P/Shoemaker-Holt,e,4.3709,214.3214,210.4892,4.482358,0.1038590,0.32237138,317.1317,05/30.0/2025,2000,g  8.5,4.0
# From MPEC 2025-J72
129P/Shoemaker-Levy,e,3.4414,184.8500,307.8620,4.293973,0.1107682,0.08592075,100.6464,05/30.0/2025,2000,g 11.0,4.0
# From MPEC 2025-GB9
130P/McNaught-Hughes,e,6.0605,70.1808,246.2926,3.387137,0.1581084,0.46122672,64.7858,05/30.0/2025,2000,g 10.0,6.0
# From MPEC 2025-A40
131P/Mueller,e,7.3618,214.1366,179.2400,3.674930,0.1399041,0.34476378,323.3986,05/30.0/2025,2000,g 11.0,4.0
# From MPEC 2024-BE0
132P/Helin-Roman-Alu,e,5.3779,173.9795,216.5077,3.892346,0.1283473,0.56404842,166.0867,05/30.0/2025,2000,g 11.0,6.0
# From MPC 94676
133P/Elst-Pizarro,e,1.3899,160.1011,131.8696,3.163079,0.1752020,0.15566991,67.4349,05/30.0/2025,2000,g 15.4,2.0
# From MPC 89012
134P/Kowal-Vavrova,e,4.3332,201.9929,18.6609,6.273226,0.0627289,0.58546833,254.3245,05/30.0/2025,2000,g 11.5,4.0
# From MPEC 2024-C04
135P/Shoemaker-Levy,e,6.0630,213.0197,22.3784,3.801524,0.1329742,0.29350393,152.8944,05/30.0/2025,2000,g  7.0,8.0
# From MPC182888
136P/Mueller,e,9.4273,137.4207,225.3135,4.185421,0.1151053,0.29315288,16.8713,05/30.0/2025,2000,g 11.0,4.0
# From MPEC 2023-J29
137P/Shoemaker-Levy,e,4.8599,232.9269,141.2184,4.523670,0.1024396,0.57298975,241.5483,05/30.0/2025,2000,g 11.0,4.0
# From MPEC 2016-U66
138P/Shoemaker-Levy,e,10.0997,309.2719,95.6868,3.617143,0.1432701,0.53155261,317.2627,05/30.0/2025,2000,g 15.0,6.0
# From MPEC 2020-HN5
139P/Vaisala-Oterma,e,2.3374,242.1802,165.9745,4.513720,0.1027785,0.24831308,279.4452,05/30.0/2025,2000,g  9.5,4.0
# From MPEC 2015-E14
140P/Bowell-Skiff,e,3.6980,343.3742,172.1572,6.412977,0.0606896,0.69520786,219.2317,05/30.0/2025,2000,g 11.5,6.0
# From MPEC 2024-R10
141P/Machholz,e,13.9618,241.7762,153.6438,3.057059,0.1843947,0.73589661,299.5238,05/30.0/2025,2000,g 12.0,12.0
# From MPEC 2015-KD9
141P-A/Machholz,e,13.9416,153.5049,241.9268,3.057283,0.1843744,0.73591466,299.4633,05/30.0/2025,2000,g 12.0,12.0
# From MPC 24216
141P-B/Machholz,e,13.9856,153.5809,241.8158,3.055652,0.1845220,0.73567534,300.8877,05/30.0/2025,2000,g  9.0,4.0
# From MPC 37026
141P-D/Machholz,e,13.8334,153.2308,242.1752,3.065800,0.1836066,0.73686010,295.0798,05/30.0/2025,2000,g  9.0,4.0
# From MPEC 2015-R12
141P-E/Machholz,e,12.8152,246.1856,149.2667,3.012914,0.1884620,0.75023267,359.9529,09/19.0/1994,2000,g  9.0,4.0
# From MPEC 2015-R12
141P-F/Machholz,e,12.7898,246.1881,149.2374,3.010224,0.1887147,0.75000946,359.9630,09/19.0/1994,2000,g  9.0,4.0
# From MPEC 2015-R12
141P-G/Machholz,e,12.8259,246.3146,149.0784,3.005818,0.1891298,0.74964304,359.9802,09/19.0/1994,2000,g  9.0,4.0
# From MPC 95735
141P-H/Machholz,e,12.8431,246.0900,149.4500,3.008012,0.1889230,0.74682218,359.9270,08/24.0/2015,2000,g 18.5,4.0
# From MPEC 2022-SU8
141P-I/Machholz,e,13.9416,153.4597,241.9366,3.047747,0.1852404,0.73514297,300.9811,05/30.0/2025,2000,g 17.5,4.0
# From MPEC 2024-C04
142P/Ge-Wang,e,12.2449,175.9593,174.0647,5.003442,0.0880645,0.49597554,130.3060,05/30.0/2025,2000,g  8.5,6.0
# From MPC182888
143P/Kowal-Mrkos,e,5.4555,242.5354,304.3200,4.778927,0.0943428,0.38349990,305.7790,05/30.0/2025,2000,g 13.5,2.0
# From MPEC 2024-YC7
144P/Kushida,e,3.9318,242.9246,216.3586,3.833675,0.1313050,0.63496606,64.3632,05/30.0/2025,2000,g  8.5,8.0
